{"type": "FeatureCollection", "features": [ {"type": "Feature", "properties": {"norad_id": 38552, "name": "METEOSAT-10 (MSG-3)", "group": "weather", "lat": 4.0367259188917215, "lon": 134.39621454880097, "alt_km": 35788.53349272924, "timestamp": "2025-12-07T03:52:32.112258+00:00", "meta": {"OBJECT_NAME": "METEOSAT-10 (MSG-3)", "OBJECT_ID": "2012-035B", "EPOCH": "2025-12-06T01:40:55.382880", "MEAN_MOTION": 1.0027296, "ECCENTRICITY": 8.777e-05, "INCLINATION": 4.2125, "RA_OF_ASC_NODE": 61.7338, "ARG_OF_PERICENTER": 227.7911, "MEAN_ANOMALY": 170.9393, "EPHEMERIS_TYPE": 0, "CLASSIFICATION_TYPE": "U", "NORAD_CAT_ID": 38552, "ELEMENT_SET_NO": 999, "REV_AT_EPOCH": 4892, "BSTAR": 0, "MEAN_MOTION_DOT": 0, "MEAN_MOTION_DDOT": 0}, "tle": {"line1": "1 38552U 12035B   25340.07008545  .00000000  00000+0  00000+0 0  9995", "line2": "2 38552   4.2125  61.7338 0000877 227.7911 170.9393  1.00272960 48920"}}, "geometry": {"type": "Point", "coordinates": [134.39621454880097, 4.0367259188917215]}}, {"type": "Feature", "properties": {"norad_id": 38771, "name": "METOP-B", "group": "weather", "lat": -0.5032415003941645, "lon": 31.291487111219208, "alt_km": 825.3317295984898, "timestamp": "2025-12-07T03:52:32.112273+00:00", "meta": {"OBJECT_NAME": "METOP-B", "OBJECT_ID": "2012-049A", "EPOCH": "2025-12-06T14:21:45.292032", "MEAN_MOTION": 14.21404997, "ECCENTRICITY": 0.00026435, "INCLINATION": 98.6808, "RA_OF_ASC_NODE": 30.6611, "ARG_OF_PERICENTER": 157.7358, "MEAN_ANOMALY": 202.3935, "EPHEMERIS_TYPE": 0, "CLASSIFICATION_TYPE": "U", "NORAD_CAT_ID": 38771, "ELEMENT_SET_NO": 999, "REV_AT_EPOCH": 68590, "BSTAR": 0.00015710096, "MEAN_MOTION_DOT": 3e-06, "MEAN_MOTION_DDOT": 0}, "tle": {"line1": "1 38771U 12049A   25340.59844088  .00000300  00000+0  15710-3 0  9991", "line2": "2 38771  98.6808  30.6611 0002643 157.7358 202.3935 14.21404997685908"}}, "geometry": {"type": "Point", "coordinates": [31.291487111219208, -0.5032415003941645]}}, {"type": "Feature", "properties": {"norad_id": 39216, "name": "INSAT-3D", "group": "weather", "lat": 0.00485437916580001, "lon": -96.13472019735536, "alt_km": 35778.929536779964, "timestamp": "2025-12-07T03:52:32.112286+00:00", "meta": {"OBJECT_NAME": "INSAT-3D", "OBJECT_ID": "2013-038B", "EPOCH": "2025-12-06T13:34:38.675424", "MEAN_MOTION": 1.00272349, "ECCENTRICITY": 0.00017696, "INCLINATION": 1.4282, "RA_OF_ASC_NODE": 85.059, "ARG_OF_PERICENTER": 159.5651, "MEAN_ANOMALY": 164.1799, "EPHEMERIS_TYPE": 0, "CLASSIFICATION_TYPE": "U", "NORAD_CAT_ID": 39216, "ELEMENT_SET_NO": 999, "REV_AT_EPOCH": 4514, "BSTAR": 0, "MEAN_MOTION_DOT": -3.32e-06, "MEAN_MOTION_DDOT": 0}, "tle": {"line1": "1 39216U 13038B   25340.56572541 -.00000332  00000+0  00000+0 0  9992", "line2": "2 39216   1.4282  85.0590 0001769 159.5651 164.1799  1.00272349 45141"}}, "geometry": {"type": "Point", "coordinates": [-96.13472019735536, 0.00485437916580001]}}, {"type": "Feature", "properties": {"norad_id": 39260, "name": "FENGYUN 3C", "group": "weather", "lat": 1.2287136225496245, "lon": -41.069885277251075, "alt_km": 851.3095073701379, "timestamp": "2025-12-07T03:52:32.112297+00:00", "meta": {"OBJECT_NAME": "FENGYUN 3C", "OBJECT_ID": "2013-052A", "EPOCH": "2025-12-06T14:17:59.206560", "MEAN_MOTION": 14.15693489, "ECCENTRICITY": 0.00139631, "INCLINATION": 98.4757, "RA_OF_ASC_NODE": 318.5754, "ARG_OF_PERICENTER": 214.3663, "MEAN_ANOMALY": 145.661, "EPHEMERIS_TYPE": 0, "CLASSIFICATION_TYPE": "U", "NORAD_CAT_ID": 39260, "ELEMENT_SET_NO": 999, "REV_AT_EPOCH": 63131, "BSTAR": 0.0001297778, "MEAN_MOTION_DOT": 2.13e-06, "MEAN_MOTION_DDOT": 0}, "tle": {"line1": "1 39260U 13052A   25340.59582415  .00000213  00000+0  12978-3 0  9999", "line2": "2 39260  98.4757 318.5754 0013963 214.3663 145.6610 14.15693489631319"}}, "geometry": {"type": "Point", "coordinates": [-41.069885277251075, 1.2287136225496245]}}, {"type": "Feature", "properties": {"norad_id": 40069, "name": "METEOR-M 2", "group": "weather", "lat": -47.87274470611151, "lon": 129.4545068892209, "alt_km": 824.0192873776823, "timestamp": "2025-12-07T03:52:32.112308+00:00", "meta": {"OBJECT_NAME": "METEOR-M 2", "OBJECT_ID": "2014-037A", "EPOCH": "2025-12-06T13:17:16.733760", "MEAN_MOTION": 14.21382863, "ECCENTRICITY": 0.00047965, "INCLINATION": 98.4896, "RA_OF_ASC_NODE": 318.3756, "ARG_OF_PERICENTER": 229.8912, "MEAN_ANOMALY": 130.1846, "EPHEMERIS_TYPE": 0, "CLASSIFICATION_TYPE": "U", "NORAD_CAT_ID": 40069, "ELEMENT_SET_NO": 999, "REV_AT_EPOCH": 59195, "BSTAR": 0.00015227847, "MEAN_MOTION_DOT": 2.91e-06, "MEAN_MOTION_DDOT": 0}, "tle": {"line1": "1 40069U 14037A   25340.55366590  .00000291  00000+0  15228-3 0  9999", "line2": "2 40069  98.4896 318.3756 0004796 229.8912 130.1846 14.21382863591957"}}, "geometry": {"type": "Point", "coordinates": [129.4545068892209, -47.87274470611151]}}, {"type": "Feature", "properties": {"norad_id": 40267, "name": "HIMAWARI-8", "group": "weather", "lat": -0.008105915034456863, "lon": -85.02033330986816, "alt_km": 35781.13732209766, "timestamp": "2025-12-07T03:52:32.112321+00:00", "meta": {"OBJECT_NAME": "HIMAWARI-8", "OBJECT_ID": "2014-060A", "EPOCH": "2025-12-06T13:53:51.604800", "MEAN_MOTION": 1.00269734, "ECCENTRICITY": 0.00013461, "INCLINATION": 0.0515, "RA_OF_ASC_NODE": 138.7422, "ARG_OF_PERICENTER": 147.5251, "MEAN_ANOMALY": 138.486, "EPHEMERIS_TYPE": 0, "CLASSIFICATION_TYPE": "U", "NORAD_CAT_ID": 40267, "ELEMENT_SET_NO": 999, "REV_AT_EPOCH": 4082, "BSTAR": 0, "MEAN_MOTION_DOT": -2.69e-06, "MEAN_MOTION_DDOT": 0}, "tle": {"line1": "1 40267U 14060A   25340.57906950 -.00000269  00000+0  00000+0 0  9991", "line2": "2 40267   0.0515 138.7422 0001346 147.5251 138.4860  1.00269734 40824"}}, "geometry": {"type": "Point", "coordinates": [-85.02033330986816, -0.008105915034456863]}}, {"type": "Feature", "properties": {"norad_id": 40367, "name": "FENGYUN 2G", "group": "weather", "lat": 1.8389700259411865, "lon": -125.9639909254189, "alt_km": 35776.74838479492, "timestamp": "2025-12-07T03:52:32.112334+00:00", "meta": {"OBJECT_NAME": "FENGYUN 2G", "OBJECT_ID": "2014-090A", "EPOCH": "2025-12-05T19:18:26.245152", "MEAN_MOTION": 1.002665, "ECCENTRICITY": 0.00031526, "INCLINATION": 5.1497, "RA_OF_ASC_NODE": 75.1781, "ARG_OF_PERICENTER": 195.2891, "MEAN_ANOMALY": 193.6781, "EPHEMERIS_TYPE": 0, "CLASSIFICATION_TYPE": "U", "NORAD_CAT_ID": 40367, "ELEMENT_SET_NO": 999, "REV_AT_EPOCH": 4006, "BSTAR": 0, "MEAN_MOTION_DOT": -2.95e-06, "MEAN_MOTION_DDOT": 0}, "tle": {"line1": "1 40367U 14090A   25339.80447043 -.00000295  00000+0  00000+0 0  9991", "line2": "2 40367   5.1497  75.1781 0003152 195.2891 193.6781  1.00266500 40068"}}, "geometry": {"type": "Point", "coordinates": [-125.9639909254189, 1.8389700259411865]}}, {"type": "Feature", "properties": {"norad_id": 40732, "name": "METEOSAT-11 (MSG-4)", "group": "weather", "lat": 2.5916128110236034, "lon": 143.677549057798, "alt_km": 35784.65503661791, "timestamp": "2025-12-07T03:52:32.112347+00:00", "meta": {"OBJECT_NAME": "METEOSAT-11 (MSG-4)", "OBJECT_ID": "2015-034A", "EPOCH": "2025-12-06T06:51:43.674624", "MEAN_MOTION": 1.00265459, "ECCENTRICITY": 9.763e-05, "INCLINATION": 2.7192, "RA_OF_ASC_NODE": 72.0205, "ARG_OF_PERICENTER": 118.5529, "MEAN_ANOMALY": 357.0911, "EPHEMERIS_TYPE": 0, "CLASSIFICATION_TYPE": "U", "NORAD_CAT_ID": 40732, "ELEMENT_SET_NO": 999, "REV_AT_EPOCH": 528, "BSTAR": 0, "MEAN_MOTION_DOT": 6.8e-07, "MEAN_MOTION_DDOT": 0}, "tle": {"line1": "1 40732U 15034A   25340.28592216  .00000068  00000+0  00000+0 0  9990", "line2": "2 40732   2.7192  72.0205 0000976 118.5529 357.0911  1.00265459  5281"}}, "geometry": {"type": "Point", "coordinates": [143.677549057798, 2.5916128110236034]}}, {"type": "Feature", "properties": {"norad_id": 41105, "name": "ELEKTRO-L 2", "group": "weather", "lat": 4.549517729630104, "lon": 119.62051509947977, "alt_km": 35800.36454103806, "timestamp": "2025-12-07T03:52:32.112359+00:00", "meta": {"OBJECT_NAME": "ELEKTRO-L 2", "OBJECT_ID": "2015-074A", "EPOCH": "2025-12-06T01:36:40.788864", "MEAN_MOTION": 1.00271999, "ECCENTRICITY": 0.00039355, "INCLINATION": 6.208, "RA_OF_ASC_NODE": 72.9071, "ARG_OF_PERICENTER": 200.4894, "MEAN_ANOMALY": 171.3714, "EPHEMERIS_TYPE": 0, "CLASSIFICATION_TYPE": "U", "NORAD_CAT_ID": 41105, "ELEMENT_SET_NO": 999, "REV_AT_EPOCH": 3657, "BSTAR": 0, "MEAN_MOTION_DOT": -1.12e-06, "MEAN_MOTION_DDOT": 0}, "tle": {"line1": "1 41105U 15074A   25340.06713876 -.00000112  00000+0  00000+0 0  9993", "line2": "2 41105   6.2080  72.9071 0003935 200.4894 171.3714  1.00271999 36575"}}, "geometry": {"type": "Point", "coordinates": [119.62051509947977, 4.549517729630104]}}, {"type": "Feature", "properties": {"norad_id": 41752, "name": "INSAT-3DR", "group": "weather", "lat": 0.04291519843120438, "lon": -151.81936348075652, "alt_km": 35756.91235670415, "timestamp": "2025-12-07T03:52:32.112371+00:00", "meta": {"OBJECT_NAME": "INSAT-3DR", "OBJECT_ID": "2016-054A", "EPOCH": "2025-12-06T12:18:19.893600", "MEAN_MOTION": 1.00269821, "ECCENTRICITY": 0.00145602, "INCLINATION": 0.0766, "RA_OF_ASC_NODE": 87.5745, "ARG_OF_PERICENTER": 181.9861, "MEAN_ANOMALY": 64.59, "EPHEMERIS_TYPE": 0, "CLASSIFICATION_TYPE": "U", "NORAD_CAT_ID": 41752, "ELEMENT_SET_NO": 999, "REV_AT_EPOCH": 3388, "BSTAR": 0, "MEAN_MOTION_DOT": -7e-07, "MEAN_MOTION_DDOT": 0}, "tle": {"line1": "1 41752U 16054A   25340.51273025 -.00000070  00000+0  00000+0 0  9990", "line2": "2 41752   0.0766  87.5745 0014560 181.9861  64.5900  1.00269821 33881"}}, "geometry": {"type": "Point", "coordinates": [-151.81936348075652, 0.04291519843120438]}}]}